SL-3 R/B                
1 19046U 88032B   26085.19043760  .00004626  00000+0  21561-3 0  9997
2 19046  97.5214  68.3876 0026041 172.3531 187.8106 15.20085851 54615
SL-16 R/B               
1 19120U 88039B   26085.11624241  .00000109  00000+0  74436-4 0  9990
2 19120  71.0162  33.8117 0023545 310.7684  49.1398 14.19618186960715
COSMOS 1953             
1 19210U 88050A   26085.12127894  .00005939  00000+0  21073-3 0  9990
2 19210  82.5080 141.7191 0012501  71.3179 288.9416 15.28777394 40295
SL-8 R/B                
1 19257U 88053B   26085.13539131  .00000327  00000+0  11450-3 0  9990
2 19257  74.0452  82.1487 0021503 259.2571 170.0031 14.38926937978963
COSMOS 1975             
1 19573U 88093A   26085.09467941  .00006007  00000+0  21632-3 0  9993
2 19573  82.5168 101.2111 0013306 110.7081 249.5586 15.28285157 21911
SL-14 R/B               
1 19574U 88093B   26084.96226393  .00000562  00000+0  61792-4 0  9995
2 19574  82.5336  26.7700 0020364 348.8266  77.3239 14.85675312  3432
SL-16 R/B               
1 19650U 88102B   26085.08028973 -.00000231  00000+0 -92677-4 0  9990
2 19650  70.9976 117.0103 0014997 336.7727  23.2717 14.16154287929213
INTERCOSMOS 24          
1 20261U 89080A   26085.00655801  .00000530  00000+0  15697-3 0  9990
2 20261  82.6011  93.7754 1186795 254.9114  91.7921 12.59579114668855
SL-14 R/B               
1 20262U 89080C   26085.19974145  .00000407  00000+0  11453-3 0  9995
2 20262  82.5961 162.5920 1230880 147.0302 221.4067 12.50509744662215
DELTA 1 R/B             
1 20323U 89089B   26085.10597549  .00000317  00000+0  86752-4 0  9997
2 20323  97.0694 289.9320 0070625  71.1509 289.7331 14.50676071898110
ARIANE 40 R/B           
1 20443U 90005H   26085.14388302  .00000265  00000+0  97702-4 0  9998
2 20443  98.3049 145.3124 0010853 150.0463 210.1349 14.39880961895173
DELTA 2 R/B(1)          
1 20453U 90008B   26084.66136736  .00067931  00000+0  74987-3 0  9992
2 20453  35.6038  69.8711 0078997  47.6487 313.0906 15.58029956928628
