CCSDS_OMM_VERS = 2.0
CREATION_DATE  = 
ORIGINATOR     = 

OBJECT_NAME    = SL-3 R/B
OBJECT_ID      = 1988-032B
CENTER_NAME    = EARTH
REF_FRAME      = TEME
TIME_SYSTEM    = UTC
MEAN_ELEMENT_THEORY = SGP/SGP4

EPOCH          = 2026-03-26T04:34:13.808640
MEAN_MOTION    = 15.20085851
ECCENTRICITY   = .0026041
INCLINATION    = 97.5214
RA_OF_ASC_NODE = 68.3876
ARG_OF_PERICENTER = 172.3531
MEAN_ANOMALY   = 187.8106

EPHEMERIS_TYPE = 0
CLASSIFICATION_TYPE = U
NORAD_CAT_ID   = 19046
ELEMENT_SET_NO = 999
REV_AT_EPOCH   = 5461
BSTAR          = .21561E-3
MEAN_MOTION_DOT = .4626E-4
MEAN_MOTION_DDOT = 0

CCSDS_OMM_VERS = 2.0
CREATION_DATE  = 
ORIGINATOR     = 

OBJECT_NAME    = SL-16 R/B
OBJECT_ID      = 1988-039B
CENTER_NAME    = EARTH
REF_FRAME      = TEME
TIME_SYSTEM    = UTC
MEAN_ELEMENT_THEORY = SGP/SGP4

EPOCH          = 2026-03-26T02:47:23.344224
MEAN_MOTION    = 14.19618186
ECCENTRICITY   = .0023545
INCLINATION    = 71.0162
RA_OF_ASC_NODE = 33.8117
ARG_OF_PERICENTER = 310.7684
MEAN_ANOMALY   = 49.1398

EPHEMERIS_TYPE = 0
CLASSIFICATION_TYPE = U
NORAD_CAT_ID   = 19120
ELEMENT_SET_NO = 999
REV_AT_EPOCH   = 96071
BSTAR          = .74436E-4
MEAN_MOTION_DOT = .109E-5
MEAN_MOTION_DDOT = 0

CCSDS_OMM_VERS = 2.0
CREATION_DATE  = 
ORIGINATOR     = 

OBJECT_NAME    = COSMOS 1953
OBJECT_ID      = 1988-050A
CENTER_NAME    = EARTH
REF_FRAME      = TEME
TIME_SYSTEM    = UTC
MEAN_ELEMENT_THEORY = SGP/SGP4

EPOCH          = 2026-03-26T02:54:38.500416
MEAN_MOTION    = 15.28777394
ECCENTRICITY   = .0012501
INCLINATION    = 82.5080
RA_OF_ASC_NODE = 141.7191
ARG_OF_PERICENTER = 71.3179
MEAN_ANOMALY   = 288.9416

EPHEMERIS_TYPE = 0
CLASSIFICATION_TYPE = U
NORAD_CAT_ID   = 19210
ELEMENT_SET_NO = 999
REV_AT_EPOCH   = 4029
BSTAR          = .21073E-3
MEAN_MOTION_DOT = .5939E-4
MEAN_MOTION_DDOT = 0

CCSDS_OMM_VERS = 2.0
CREATION_DATE  = 
ORIGINATOR     = 

OBJECT_NAME    = SL-8 R/B
OBJECT_ID      = 1988-053B
CENTER_NAME    = EARTH
REF_FRAME      = TEME
TIME_SYSTEM    = UTC
MEAN_ELEMENT_THEORY = SGP/SGP4

EPOCH          = 2026-03-26T03:14:57.809184
MEAN_MOTION    = 14.38926937
ECCENTRICITY   = .0021503
INCLINATION    = 74.0452
RA_OF_ASC_NODE = 82.1487
ARG_OF_PERICENTER = 259.2571
MEAN_ANOMALY   = 170.0031

EPHEMERIS_TYPE = 0
CLASSIFICATION_TYPE = U
NORAD_CAT_ID   = 19257
ELEMENT_SET_NO = 999
REV_AT_EPOCH   = 97896
BSTAR          = .1145E-3
MEAN_MOTION_DOT = .327E-5
MEAN_MOTION_DDOT = 0

CCSDS_OMM_VERS = 2.0
CREATION_DATE  = 
ORIGINATOR     = 

OBJECT_NAME    = COSMOS 1975
OBJECT_ID      = 1988-093A
CENTER_NAME    = EARTH
REF_FRAME      = TEME
TIME_SYSTEM    = UTC
MEAN_ELEMENT_THEORY = SGP/SGP4

EPOCH          = 2026-03-26T02:16:20.301024
MEAN_MOTION    = 15.28285157
ECCENTRICITY   = .0013306
INCLINATION    = 82.5168
RA_OF_ASC_NODE = 101.2111
ARG_OF_PERICENTER = 110.7081
MEAN_ANOMALY   = 249.5586

EPHEMERIS_TYPE = 0
CLASSIFICATION_TYPE = U
NORAD_CAT_ID   = 19573
ELEMENT_SET_NO = 999
REV_AT_EPOCH   = 2191
BSTAR          = .21632E-3
MEAN_MOTION_DOT = .6007E-4
MEAN_MOTION_DDOT = 0

CCSDS_OMM_VERS = 2.0
CREATION_DATE  = 
ORIGINATOR     = 

OBJECT_NAME    = SL-14 R/B
OBJECT_ID      = 1988-093B
CENTER_NAME    = EARTH
REF_FRAME      = TEME
TIME_SYSTEM    = UTC
MEAN_ELEMENT_THEORY = SGP/SGP4

EPOCH          = 2026-03-25T23:05:39.603552
MEAN_MOTION    = 14.85675312
ECCENTRICITY   = .0020364
INCLINATION    = 82.5336
RA_OF_ASC_NODE = 26.7700
ARG_OF_PERICENTER = 348.8266
MEAN_ANOMALY   = 77.3239

EPHEMERIS_TYPE = 0
CLASSIFICATION_TYPE = U
NORAD_CAT_ID   = 19574
ELEMENT_SET_NO = 999
REV_AT_EPOCH   = 343
BSTAR          = .61792E-4
MEAN_MOTION_DOT = .562E-5
MEAN_MOTION_DDOT = 0

CCSDS_OMM_VERS = 2.0
CREATION_DATE  = 
ORIGINATOR     = 

OBJECT_NAME    = SL-16 R/B
OBJECT_ID      = 1988-102B
CENTER_NAME    = EARTH
REF_FRAME      = TEME
TIME_SYSTEM    = UTC
MEAN_ELEMENT_THEORY = SGP/SGP4

EPOCH          = 2026-03-26T01:55:37.032672
MEAN_MOTION    = 14.16154287
ECCENTRICITY   = .0014997
INCLINATION    = 70.9976
RA_OF_ASC_NODE = 117.0103
ARG_OF_PERICENTER = 336.7727
MEAN_ANOMALY   = 23.2717

EPHEMERIS_TYPE = 0
CLASSIFICATION_TYPE = U
NORAD_CAT_ID   = 19650
ELEMENT_SET_NO = 999
REV_AT_EPOCH   = 92921
BSTAR          = -.92677E-4
MEAN_MOTION_DOT = -.231E-5
MEAN_MOTION_DDOT = 0

CCSDS_OMM_VERS = 2.0
CREATION_DATE  = 
ORIGINATOR     = 

OBJECT_NAME    = INTERCOSMOS 24
OBJECT_ID      = 1989-080A
CENTER_NAME    = EARTH
REF_FRAME      = TEME
TIME_SYSTEM    = UTC
MEAN_ELEMENT_THEORY = SGP/SGP4

EPOCH          = 2026-03-26T00:09:26.612064
MEAN_MOTION    = 12.59579114
ECCENTRICITY   = .1186795
INCLINATION    = 82.6011
RA_OF_ASC_NODE = 93.7754
ARG_OF_PERICENTER = 254.9114
MEAN_ANOMALY   = 91.7921

EPHEMERIS_TYPE = 0
CLASSIFICATION_TYPE = U
NORAD_CAT_ID   = 20261
ELEMENT_SET_NO = 999
REV_AT_EPOCH   = 66885
BSTAR          = .15697E-3
MEAN_MOTION_DOT = .53E-5
MEAN_MOTION_DDOT = 0

CCSDS_OMM_VERS = 2.0
CREATION_DATE  = 
ORIGINATOR     = 

OBJECT_NAME    = SL-14 R/B
OBJECT_ID      = 1989-080C
CENTER_NAME    = EARTH
REF_FRAME      = TEME
TIME_SYSTEM    = UTC
MEAN_ELEMENT_THEORY = SGP/SGP4

EPOCH          = 2026-03-26T04:47:37.661280
MEAN_MOTION    = 12.50509744
ECCENTRICITY   = .123088
INCLINATION    = 82.5961
RA_OF_ASC_NODE = 162.5920
ARG_OF_PERICENTER = 147.0302
MEAN_ANOMALY   = 221.4067

EPHEMERIS_TYPE = 0
CLASSIFICATION_TYPE = U
NORAD_CAT_ID   = 20262
ELEMENT_SET_NO = 999
REV_AT_EPOCH   = 66221
BSTAR          = .11453E-3
MEAN_MOTION_DOT = .407E-5
MEAN_MOTION_DDOT = 0

CCSDS_OMM_VERS = 2.0
CREATION_DATE  = 
ORIGINATOR     = 

OBJECT_NAME    = DELTA 1 R/B
OBJECT_ID      = 1989-089B
CENTER_NAME    = EARTH
REF_FRAME      = TEME
TIME_SYSTEM    = UTC
MEAN_ELEMENT_THEORY = SGP/SGP4

EPOCH          = 2026-03-26T02:32:36.282336
MEAN_MOTION    = 14.50676071
ECCENTRICITY   = .0070625
INCLINATION    = 97.0694
RA_OF_ASC_NODE = 289.9320
ARG_OF_PERICENTER = 71.1509
MEAN_ANOMALY   = 289.7331

EPHEMERIS_TYPE = 0
CLASSIFICATION_TYPE = U
NORAD_CAT_ID   = 20323
ELEMENT_SET_NO = 999
REV_AT_EPOCH   = 89811
BSTAR          = .86752E-4
MEAN_MOTION_DOT = .317E-5
MEAN_MOTION_DDOT = 0

CCSDS_OMM_VERS = 2.0
CREATION_DATE  = 
ORIGINATOR     = 

OBJECT_NAME    = ARIANE 40 R/B
OBJECT_ID      = 1990-005H
CENTER_NAME    = EARTH
REF_FRAME      = TEME
TIME_SYSTEM    = UTC
MEAN_ELEMENT_THEORY = SGP/SGP4

EPOCH          = 2026-03-26T03:27:11.492928
MEAN_MOTION    = 14.39880961
ECCENTRICITY   = .0010853
INCLINATION    = 98.3049
RA_OF_ASC_NODE = 145.3124
ARG_OF_PERICENTER = 150.0463
MEAN_ANOMALY   = 210.1349

EPHEMERIS_TYPE = 0
CLASSIFICATION_TYPE = U
NORAD_CAT_ID   = 20443
ELEMENT_SET_NO = 999
REV_AT_EPOCH   = 89517
BSTAR          = .97702E-4
MEAN_MOTION_DOT = .265E-5
MEAN_MOTION_DDOT = 0

CCSDS_OMM_VERS = 2.0
CREATION_DATE  = 
ORIGINATOR     = 

OBJECT_NAME    = DELTA 2 R/B(1)
OBJECT_ID      = 1990-008B
CENTER_NAME    = EARTH
REF_FRAME      = TEME
TIME_SYSTEM    = UTC
MEAN_ELEMENT_THEORY = SGP/SGP4

EPOCH          = 2026-03-25T15:52:22.139904
MEAN_MOTION    = 15.58029956
ECCENTRICITY   = .00789974
INCLINATION    = 35.6038
RA_OF_ASC_NODE = 69.8711
ARG_OF_PERICENTER = 47.6487
MEAN_ANOMALY   = 313.0906

EPHEMERIS_TYPE = 0
CLASSIFICATION_TYPE = U
NORAD_CAT_ID   = 20453
ELEMENT_SET_NO = 999
REV_AT_EPOCH   = 92862
BSTAR          = .74986638E-3
MEAN_MOTION_DOT = .67931E-3
MEAN_MOTION_DDOT = 0

